     3.04           N: GNSS NAV DATA    M: MIXED            RINEX VERSION / TYPE
MergeMNfile.tcl     IGS                 20260421 173506 GMT PGM / RUN BY / DATE
GAGP -9.6042640507E-10-3.019806627E-14  86400 2415          TIME SYSTEM CORR
GAUT  0.0000000000E+00 0.000000000E+00      0 2415          TIME SYSTEM CORR
GPUT  9.3132257462E-10 8.881784197E-15 233472 2415          TIME SYSTEM CORR
GLUT  9.3132257462E-10 0.000000000E+00      0    0          TIME SYSTEM CORR
QZUT -1.8626451492E-09 0.000000000E+00 356352 2414          TIME SYSTEM CORR
BDUT  0.0000000000E+00 0.000000000E+00  85985 1059          TIME SYSTEM CORR
    18    18  1929     7                                    LEAP SECONDS
                                                            END OF HEADER
