     3.04           N: GNSS NAV DATA    M: MIXED            RINEX VERSION / TYPE
MergeMNfile.tcl     IGS                 20260406 075122 GMT PGM / RUN BY / DATE
GPUT -9.3132257462D-10 0.000000000D+00  61440 2413          TIME SYSTEM CORR
GLUT -7.4505805969D-09 0.000000000D+00      0    0          TIME SYSTEM CORR
GAUT  9.3132257462D-10-8.881784197D-16 432000 2412          TIME SYSTEM CORR
GAGP  2.5611370802D-09-1.776356839D-15 518400 2412          TIME SYSTEM CORR
BDUT  0.0000000000D+00 0.000000000D+00 517985 1056          TIME SYSTEM CORR
QZUT  3.7252902985D-09 0.000000000D+00  94208 2413          TIME SYSTEM CORR
    18    18  1929     7                                    LEAP SECONDS
                                                            END OF HEADER
