     3.04           N: GNSS NAV DATA    M: MIXED            RINEX VERSION / TYPE
MergeMNfile.tcl     IGS                 20260425 063407 GMT PGM / RUN BY / DATE
GAGP  2.9103830457E-10-8.881784197E-16 345600 2415          TIME SYSTEM CORR
GAUT  9.3132257462E-10 0.000000000E+00 259200 2415          TIME SYSTEM CORR
GPUT -1.8626451492E-09-9.769962617E-15 589824 2415          TIME SYSTEM CORR
GLUT  3.2596290112E-09 0.000000000E+00      0    0          TIME SYSTEM CORR
QZUT -1.8626451492E-09 0.000000000E+00 356352 2414          TIME SYSTEM CORR
BDUT  0.0000000000E+00 0.000000000E+00 345185 1059          TIME SYSTEM CORR
    18    18  1929     7                                    LEAP SECONDS
                                                            END OF HEADER
