     3.04           N: GNSS NAV DATA    M: MIXED            RINEX VERSION / TYPE
MergeMNfile.tcl     IGS                 20260406 153506 GMT PGM / RUN BY / DATE
GPUT  0.0000000000D+00 3.552713679D-15 233472 2413          TIME SYSTEM CORR
GLUT -7.9162418842D-09 0.000000000D+00      0    0          TIME SYSTEM CORR
GAUT  9.3132257462D-10-8.881784197D-16 518400 2412          TIME SYSTEM CORR
GAGP  3.2887328416D-09 2.220446049D-15      0 2413          TIME SYSTEM CORR
BDUT  0.0000000000D+00 0.000000000D+00 604385 1056          TIME SYSTEM CORR
QZUT  1.8626451492D-09 0.000000000D+00 180224 2413          TIME SYSTEM CORR
    18    18  1929     7                                    LEAP SECONDS
                                                            END OF HEADER
