     3.04           N: GNSS NAV DATA    M: MIXED            RINEX VERSION / TYPE
MergeMNfile.tcl     IGS                 20260420 153506 GMT PGM / RUN BY / DATE
GPUT  1.8626451492D-09 1.154631946D-14 233472 2415          TIME SYSTEM CORR
GLUT  9.3132257462D-10 0.000000000D+00      0    0          TIME SYSTEM CORR
GAUT  0.0000000000D+00 0.000000000D+00 518400 2414          TIME SYSTEM CORR
GAGP  3.7543941289D-09-3.996802889D-15      0 2415          TIME SYSTEM CORR
BDUT  0.0000000000D+00 0.000000000D+00 604385 1058          TIME SYSTEM CORR
QZUT -9.3132257462D-10 0.000000000D+00 180224 2415          TIME SYSTEM CORR
    18    18  1929     7                                    LEAP SECONDS
                                                            END OF HEADER
