     3.04           N: GNSS NAV DATA    M: MIXED            RINEX VERSION / TYPE
MergeMNfile.tcl     IGS                 20260102 093505 GMT PGM / RUN BY / DATE
GPUT -1.8626451492D-09-8.881784197D-16 503808 2399          TIME SYSTEM CORR
GLUT -4.6566128731D-09 0.000000000D+00      0    0          TIME SYSTEM CORR
GAUT -1.8626451492D-09 8.881784197D-16 172800 2399          TIME SYSTEM CORR
GAGP  3.7252902985D-09 2.087219286D-14 259200 2399          TIME SYSTEM CORR
BDUT  0.0000000000D+00 9.769962617D-15 258785 1043          TIME SYSTEM CORR
    18    18  1929     7                                    LEAP SECONDS
                                                            END OF HEADER
