     3.04           N: GNSS NAV DATA    M: MIXED            RINEX VERSION / TYPE
MergeMNfile.tcl     IGS                 20260401 173506 GMT PGM / RUN BY / DATE
GPUT  9.3132257462D-10-1.776356839D-15 405504 2412          TIME SYSTEM CORR
GLUT -5.1222741604D-09 0.000000000D+00      0    0          TIME SYSTEM CORR
GAUT  9.3132257462D-10-8.881784197D-16  86400 2412          TIME SYSTEM CORR
GAGP  6.9849193096D-10-7.105427358D-15 172800 2412          TIME SYSTEM CORR
BDUT  0.0000000000D+00 0.000000000D+00 172385 1056          TIME SYSTEM CORR
QZUT  3.7252902985D-09 0.000000000D+00 356352 2412          TIME SYSTEM CORR
    18    18  1929     7                                    LEAP SECONDS
                                                            END OF HEADER
