     3.04           N: GNSS NAV DATA    M: MIXED            RINEX VERSION / TYPE
MergeMNfile.tcl     IGS                 20260120 213505 GMT PGM / RUN BY / DATE
GPUT -1.8626451492D-09-5.329070518D-15 319488 2402          TIME SYSTEM CORR
GLUT  4.6566128731D-09 0.000000000D+00      0    0          TIME SYSTEM CORR
GAUT -1.8626451492D-09 8.881784197D-16      0 2402          TIME SYSTEM CORR
GAGP  1.7462298274D-09 1.776356839D-14  86400 2402          TIME SYSTEM CORR
BDUT  0.0000000000D+00 2.042810365D-14  85985 1046          TIME SYSTEM CORR
    18    18  1929     7                                    LEAP SECONDS
                                                            END OF HEADER
