     3.04           N: GNSS NAV DATA    M: MIXED            RINEX VERSION / TYPE
MergeMNfile.tcl     IGS                 20260416 022320 GMT PGM / RUN BY / DATE
GPUT -4.6566128731D-09-9.769962617D-15 405504 2414          TIME SYSTEM CORR
GLUT -1.8626451492D-09 0.000000000D+00      0    0          TIME SYSTEM CORR
GAUT  0.0000000000D+00 0.000000000D+00  86400 2414          TIME SYSTEM CORR
GAGP  4.5110937208D-09 1.199040867D-14 172800 2414          TIME SYSTEM CORR
BDUT  0.0000000000D+00 0.000000000D+00 172745 1058          TIME SYSTEM CORR
QZUT  0.0000000000D+00 0.000000000D+00 356352 2414          TIME SYSTEM CORR
    18    18  1929     7                                    LEAP SECONDS
                                                            END OF HEADER
