     3.04           N: GNSS NAV DATA    M: MIXED            RINEX VERSION / TYPE
MergeMNfile.tcl     IGS                 20260115 173505 GMT PGM / RUN BY / DATE
GPUT  0.0000000000D+00-7.993605777D-15 503808 2401          TIME SYSTEM CORR
GLUT  3.7252902985D-09 0.000000000D+00      0    0          TIME SYSTEM CORR
GAUT -1.8626451492D-09 8.881784197D-16 172800 2401          TIME SYSTEM CORR
GAGP -3.8708094507D-09-3.108624469D-15 259200 2401          TIME SYSTEM CORR
BDUT -1.8626451492D-09-9.769962617D-15 258785 1045          TIME SYSTEM CORR
    18    18  1929     7                                    LEAP SECONDS
                                                            END OF HEADER
