     3.04           N: GNSS NAV DATA    M: MIXED            RINEX VERSION / TYPE
MergeMNfile.tcl     IGS                 20260413 093506 GMT PGM / RUN BY / DATE
GAGP  2.9103830457E-10 1.776356839E-15 518400 2413          TIME SYSTEM CORR
GAUT  9.3132257462E-10 0.000000000E+00 432000 2413          TIME SYSTEM CORR
GPUT  0.0000000000E+00-8.881784197E-15 147456 2414          TIME SYSTEM CORR
GLUT -1.3969838619E-09 0.000000000E+00      0    0          TIME SYSTEM CORR
QZUT -1.8626451492E-09 0.000000000E+00 356352 2414          TIME SYSTEM CORR
BDUT  0.0000000000E+00 0.000000000E+00 517985 1057          TIME SYSTEM CORR
    18    18  1929     7                                    LEAP SECONDS
                                                            END OF HEADER
