     3.04           N: GNSS NAV DATA    M: MIXED            RINEX VERSION / TYPE
MergeMNfile.tcl     IGS                 20260501 013505 GMT PGM / RUN BY / DATE
GPUT -2.7939677238D-09-9.769962617D-15 589824 2416          TIME SYSTEM CORR
GLUT -4.6566128731D-09 0.000000000D+00      0    0          TIME SYSTEM CORR
GAUT  0.0000000000D+00 0.000000000D+00 259200 2416          TIME SYSTEM CORR
GAGP  1.1641532183D-10-1.776356839D-15 345600 2416          TIME SYSTEM CORR
BDUT  0.0000000000D+00 0.000000000D+00 345545 1060          TIME SYSTEM CORR
IRUT  1.1816155165D-08 8.881784197D-16 344400 1392          TIME SYSTEM CORR
    18    18  1929     7                                    LEAP SECONDS
                                                            END OF HEADER
