     3.04           N: GNSS NAV DATA    M: MIXED            RINEX VERSION / TYPE
MergeMNfile.tcl     IGS                 20260119 233506 GMT PGM / RUN BY / DATE
GPUT -5.5879354477D-09-1.865174681D-14 233472 2402          TIME SYSTEM CORR
GLUT  5.1222741604D-09 0.000000000D+00      0    0          TIME SYSTEM CORR
GAUT -9.3132257462D-10 8.881784197D-16 518400 2401          TIME SYSTEM CORR
GAGP -4.6566128731D-10 9.769962617D-15      0 2402          TIME SYSTEM CORR
BDUT -1.8626451492D-09 0.000000000D+00 604385 1045          TIME SYSTEM CORR
    18    18  1929     7                                    LEAP SECONDS
                                                            END OF HEADER
