     3.04           N: GNSS NAV DATA    M: MIXED            RINEX VERSION / TYPE
MergeMNfile.tcl     IGS                 20260110 133504 GMT PGM / RUN BY / DATE
GPUT  0.0000000000D+00 1.776356839D-15  61440 2401          TIME SYSTEM CORR
GLUT  2.7939677238D-09 0.000000000D+00      0    0          TIME SYSTEM CORR
GAUT -1.8626451492D-09 8.881784197D-16 345600 2400          TIME SYSTEM CORR
GAGP -1.1932570487D-09-7.993605777D-15 432000 2400          TIME SYSTEM CORR
BDUT -1.8626451492D-09 0.000000000D+00 431585 1044          TIME SYSTEM CORR
    18    18  1929     7                                    LEAP SECONDS
                                                            END OF HEADER
