     3.04           N: GNSS NAV DATA    M: MIXED            RINEX VERSION / TYPE
MergeMNfile.tcl     IGS                 20260109 093506 GMT PGM / RUN BY / DATE
GPUT -2.7939677238D-09-3.552713679D-15 405504 2400          TIME SYSTEM CORR
GLUT  1.3969838619D-09 0.000000000D+00      0    0          TIME SYSTEM CORR
GAUT -9.3132257462D-10 0.000000000D+00 172800 2400          TIME SYSTEM CORR
GAGP  1.5716068447D-09 3.552713679D-15 259200 2400          TIME SYSTEM CORR
BDUT -9.3132257462D-10-9.769962617D-15 258785 1044          TIME SYSTEM CORR
    18    18  1929     7                                    LEAP SECONDS
                                                            END OF HEADER
