     3.04           N: GNSS NAV DATA    M: MIXED            RINEX VERSION / TYPE
MergeMNfile.tcl     IGS                 20260427 153506 GMT PGM / RUN BY / DATE
GAGP  2.1245796233E-09 5.773159728E-15      0 2416          TIME SYSTEM CORR
GAUT  0.0000000000E+00 0.000000000E+00 518400 2415          TIME SYSTEM CORR
GPUT -1.8626451492E-09-6.217248938E-15 233472 2416          TIME SYSTEM CORR
GLUT  1.8626451492E-09 0.000000000E+00      0    0          TIME SYSTEM CORR
QZUT -1.8626451492E-09 0.000000000E+00 356352 2414          TIME SYSTEM CORR
BDUT  0.0000000000E+00 0.000000000E+00 604385 1059          TIME SYSTEM CORR
    18    18  1929     7                                    LEAP SECONDS
                                                            END OF HEADER
