     3.04           N: GNSS NAV DATA    M: MIXED            RINEX VERSION / TYPE
MergeMNfile.tcl     IGS                 20260116 193505 GMT PGM / RUN BY / DATE
GPUT -1.8626451492D-09-1.065814104D-14 589824 2401          TIME SYSTEM CORR
GLUT  5.5879354477D-09 0.000000000D+00      0    0          TIME SYSTEM CORR
GAUT -1.8626451492D-09 8.881784197D-16 259200 2401          TIME SYSTEM CORR
GAGP -1.6880221665D-09 1.243449788D-14 345600 2401          TIME SYSTEM CORR
BDUT -1.8626451492D-09-9.769962617D-15 345185 1045          TIME SYSTEM CORR
    18    18  1929     7                                    LEAP SECONDS
                                                            END OF HEADER
