     3.04           N: GNSS NAV DATA    M: MIXED            RINEX VERSION / TYPE
MergeMNfile.tcl     IGS                 20260203 105112 GMT PGM / RUN BY / DATE
GPUT -1.8626451492D-09-2.664535259D-15 233472 2404          TIME SYSTEM CORR
GLUT -4.6566128731D-10 0.000000000D+00      0    0          TIME SYSTEM CORR
GAUT -1.8626451492D-09 8.881784197D-16 518400 2403          TIME SYSTEM CORR
GAGP -1.3096723706D-09 7.993605777D-15      0 2404          TIME SYSTEM CORR
BDUT -9.3132257462D-10 0.000000000D+00 604385 1047          TIME SYSTEM CORR
    18    18  1929     7                                    LEAP SECONDS
                                                            END OF HEADER
