     3.04           N: GNSS NAV DATA    M: MIXED            RINEX VERSION / TYPE
MergeMNfile.tcl     IGS                 20260420 062654 GMT PGM / RUN BY / DATE
GPUT -1.8626451492D-09 5.329070518D-15 147456 2415          TIME SYSTEM CORR
GLUT  4.6566128731D-10 0.000000000D+00      0    0          TIME SYSTEM CORR
GAUT  9.3132257462D-10 0.000000000D+00 432000 2414          TIME SYSTEM CORR
GAGP  4.2491592467D-09-8.881784197D-16 518400 2414          TIME SYSTEM CORR
BDUT  0.0000000000D+00 0.000000000D+00 517985 1058          TIME SYSTEM CORR
QZUT -9.3132257462D-10 0.000000000D+00  94208 2415          TIME SYSTEM CORR
    18    18  1929     7                                    LEAP SECONDS
                                                            END OF HEADER
