     3.04           N: GNSS NAV DATA    M: MIXED            RINEX VERSION / TYPE
MergeMNfile.tcl     IGS                 20260410 233506 GMT PGM / RUN BY / DATE
GPUT  5.5879354477D-09 6.217248938D-15 589824 2413          TIME SYSTEM CORR
GLUT -1.3969838619D-09 0.000000000D+00      0    0          TIME SYSTEM CORR
GAUT  9.3132257462D-10-8.881784197D-16 259200 2413          TIME SYSTEM CORR
GAGP -2.0372681320D-10-6.217248938D-15 345600 2413          TIME SYSTEM CORR
BDUT  0.0000000000D+00 0.000000000D+00 345545 1057          TIME SYSTEM CORR
QZUT  2.7939677238D-09 0.000000000D+00 528384 2413          TIME SYSTEM CORR
    18    18  1929     7                                    LEAP SECONDS
                                                            END OF HEADER
