     3.04           N: GNSS NAV DATA    M: MIXED            RINEX VERSION / TYPE
MergeMNfile.tcl     IGS                 20260125 022204 GMT PGM / RUN BY / DATE
GPUT  0.0000000000D+00 5.329070518D-15  61440 2403          TIME SYSTEM CORR
GLUT  0.0000000000D+00 0.000000000D+00      0    0          TIME SYSTEM CORR
GAUT -1.8626451492D-09 8.881784197D-16 345600 2402          TIME SYSTEM CORR
GAGP  2.6484485716D-09 1.065814104D-14 432000 2402          TIME SYSTEM CORR
BDUT  0.0000000000D+00-9.769962617D-15 431585 1046          TIME SYSTEM CORR
    18    18  1929     7                                    LEAP SECONDS
                                                            END OF HEADER
