     3.04           N: GNSS NAV DATA    M: MIXED            RINEX VERSION / TYPE
MergeMNfile.tcl     IGS                 20260113 093506 GMT PGM / RUN BY / DATE
GPUT  1.8626451492D-09 6.217248938D-15 233472 2401          TIME SYSTEM CORR
GLUT -1.3969838619D-09 0.000000000D+00      0    0          TIME SYSTEM CORR
GAUT -1.8626451492D-09 8.881784197D-16 518400 2400          TIME SYSTEM CORR
GAGP -1.2805685401D-09-2.220446049D-15      0 2401          TIME SYSTEM CORR
BDUT  9.3132257462D-10 2.042810365D-14 604385 1044          TIME SYSTEM CORR
    18    18  1929     7                                    LEAP SECONDS
                                                            END OF HEADER
