     3.04           N: GNSS NAV DATA    M: MIXED            RINEX VERSION / TYPE
MergeMNfile.tcl     IGS                 20260117 133505 GMT PGM / RUN BY / DATE
GPUT -9.3132257462D-10-7.105427358D-15  61440 2402          TIME SYSTEM CORR
GLUT  6.9849193096D-09 0.000000000D+00      0    0          TIME SYSTEM CORR
GAUT -1.8626451492D-09 8.881784197D-16 345600 2401          TIME SYSTEM CORR
GAGP -7.5669959188D-10 1.154631946D-14 432000 2401          TIME SYSTEM CORR
BDUT -1.8626451492D-09 9.769962617D-15 431585 1045          TIME SYSTEM CORR
    18    18  1929     7                                    LEAP SECONDS
                                                            END OF HEADER
