     3.04           N: GNSS NAV DATA    M: MIXED            RINEX VERSION / TYPE
MergeMNfile.tcl     IGS                 20260429 133506 GMT PGM / RUN BY / DATE
GAGP  8.7311491370E-11-6.661338148E-15 172800 2416          TIME SYSTEM CORR
GAUT  9.3132257462E-10 0.000000000E+00  86400 2416          TIME SYSTEM CORR
GPUT  9.3132257462E-10 8.881784197E-16 405504 2416          TIME SYSTEM CORR
GLUT -0.0000000000E+00 0.000000000E+00      0    0          TIME SYSTEM CORR
QZUT -1.8626451492E-09 0.000000000E+00 356352 2414          TIME SYSTEM CORR
BDUT  0.0000000000E+00 0.000000000E+00 172385 1060          TIME SYSTEM CORR
    18    18  1929     7                                    LEAP SECONDS
                                                            END OF HEADER
