     3.04           N: GNSS NAV DATA    M: MIXED            RINEX VERSION / TYPE
MergeMNfile.tcl     IGS                 20260404 153506 GMT PGM / RUN BY / DATE
GPUT  0.0000000000D+00 0.000000000D+00  61440 2413          TIME SYSTEM CORR
GLUT -7.4505805969D-09 0.000000000D+00      0    0          TIME SYSTEM CORR
GAUT  9.3132257462D-10 0.000000000D+00 345600 2412          TIME SYSTEM CORR
GAGP  3.4633558244D-09 7.549516567D-15 432000 2412          TIME SYSTEM CORR
BDUT  0.0000000000D+00 0.000000000D+00 431585 1056          TIME SYSTEM CORR
QZUT  5.5879354477D-09 0.000000000D+00   8192 2413          TIME SYSTEM CORR
    18    18  1929     7                                    LEAP SECONDS
                                                            END OF HEADER
