     3.04           N: GNSS NAV DATA    M: MIXED            RINEX VERSION / TYPE
MergeMNfile.tcl     IGS                 20260417 153506 GMT PGM / RUN BY / DATE
GPUT -3.7252902985D-09-1.776356839D-15 589824 2414          TIME SYSTEM CORR
GLUT -0.0000000000D+00 0.000000000D+00      0    0          TIME SYSTEM CORR
GAUT  0.0000000000D+00 0.000000000D+00 259200 2414          TIME SYSTEM CORR
GAGP  6.6647771746D-09 1.332267630D-14 345600 2414          TIME SYSTEM CORR
BDUT  0.0000000000D+00 0.000000000D+00 345185 1058          TIME SYSTEM CORR
QZUT  0.0000000000D+00 0.000000000D+00 528384 2414          TIME SYSTEM CORR
    18    18  1929     7                                    LEAP SECONDS
                                                            END OF HEADER
