     3.04           N: GNSS NAV DATA    M: MIXED            RINEX VERSION / TYPE
MergeMNfile.tcl     IGS                 20260408 013508 GMT PGM / RUN BY / DATE
GAGP  3.8708094507E-09 3.552713679E-15  86400 2413          TIME SYSTEM CORR
GAUT  1.8626451492E-09-8.881784197E-16      0 2413          TIME SYSTEM CORR
GPUT -9.3132257462E-10 0.000000000E+00 319488 2413          TIME SYSTEM CORR
GLUT -2.7939677238E-09 0.000000000E+00      0    0          TIME SYSTEM CORR
QZUT -1.8626451492E-09 0.000000000E+00 356352 2414          TIME SYSTEM CORR
BDUT  0.0000000000E+00 0.000000000E+00  79494 1057          TIME SYSTEM CORR
    18    18  1929     7                                    LEAP SECONDS
                                                            END OF HEADER
