     3.04           N: GNSS NAV DATA    M: MIXED            RINEX VERSION / TYPE
MergeMNfile.tcl     IGS                 20260106 103853 GMT PGM / RUN BY / DATE
GPUT  9.3132257462D-10 8.881784197D-15 147456 2400          TIME SYSTEM CORR
GLUT -3.7252902985D-09 0.000000000D+00      0    0          TIME SYSTEM CORR
GAUT -9.3132257462D-10 0.000000000D+00 518400 2399          TIME SYSTEM CORR
GAGP  2.2992026061D-09 0.000000000D+00      0 2400          TIME SYSTEM CORR
BDUT  0.0000000000D+00-9.769962617D-15 604385 1043          TIME SYSTEM CORR
    18    18  1929     7                                    LEAP SECONDS
                                                            END OF HEADER
