     3.04           N: GNSS NAV DATA    M: MIXED            RINEX VERSION / TYPE
MergeMNfile.tcl     IGS                 20260410 093506 GMT PGM / RUN BY / DATE
GAGP -8.7311491370E-10-2.087219286E-14 259200 2413          TIME SYSTEM CORR
GAUT  9.3132257462E-10-8.881784197E-16 172800 2413          TIME SYSTEM CORR
GPUT  6.5192580223E-09 1.243449788E-14 503808 2413          TIME SYSTEM CORR
GLUT -1.8626451492E-09 0.000000000E+00      0    0          TIME SYSTEM CORR
QZUT -1.8626451492E-09 0.000000000E+00 356352 2414          TIME SYSTEM CORR
BDUT  0.0000000000E+00 0.000000000E+00 258785 1057          TIME SYSTEM CORR
    18    18  1929     7                                    LEAP SECONDS
                                                            END OF HEADER
