     3.04           N: GNSS NAV DATA    M: MIXED            RINEX VERSION / TYPE
MergeMNfile.tcl     IGS                 20260425 173506 GMT PGM / RUN BY / DATE
GAGP  5.2386894822E-10 8.881784197E-16 432000 2415          TIME SYSTEM CORR
GAUT  9.3132257462E-10 0.000000000E+00 345600 2415          TIME SYSTEM CORR
GPUT  0.0000000000E+00-4.440892099E-15  61440 2416          TIME SYSTEM CORR
GLUT  4.1909515858E-09 0.000000000E+00      0    0          TIME SYSTEM CORR
QZUT -1.8626451492E-09 0.000000000E+00 356352 2414          TIME SYSTEM CORR
BDUT  0.0000000000E+00 0.000000000E+00 431585 1059          TIME SYSTEM CORR
    18    18  1929     7                                    LEAP SECONDS
                                                            END OF HEADER
