     3.04           N: GNSS NAV DATA    M: MIXED            RINEX VERSION / TYPE
MergeMNfile.tcl     IGS                 20260123 093506 GMT PGM / RUN BY / DATE
GPUT -3.7252902985D-09-8.881784197D-15 503808 2402          TIME SYSTEM CORR
GLUT  2.3283064365D-09 0.000000000D+00      0    0          TIME SYSTEM CORR
GAUT -9.3132257462D-10 8.881784197D-16 172800 2402          TIME SYSTEM CORR
GAGP  4.9476511776D-10 5.329070518D-15 259200 2402          TIME SYSTEM CORR
BDUT  9.3132257462D-10 0.000000000D+00 258785 1046          TIME SYSTEM CORR
    18    18  1929     7                                    LEAP SECONDS
                                                            END OF HEADER
