     3.04           N: GNSS NAV DATA    M: MIXED            RINEX VERSION / TYPE
MergeMNfile.tcl     IGS                 20260130 093506 GMT PGM / RUN BY / DATE
GPUT  0.0000000000D+00-8.881784197D-16 503808 2403          TIME SYSTEM CORR
GLUT -1.3969838619D-09 0.000000000D+00      0    0          TIME SYSTEM CORR
GAUT -9.3132257462D-10 0.000000000D+00 172800 2403          TIME SYSTEM CORR
GAGP  3.4924596548D-10 4.884981308D-15 259200 2403          TIME SYSTEM CORR
BDUT  0.0000000000D+00 0.000000000D+00 258785 1047          TIME SYSTEM CORR
    18    18  1929     7                                    LEAP SECONDS
                                                            END OF HEADER
