     3.04           N: GNSS NAV DATA    M: MIXED            RINEX VERSION / TYPE
MergeMNfile.tcl     IGS                 20260127 022245 GMT PGM / RUN BY / DATE
GPUT  9.3132257462D-10 7.105427358D-15 233472 2403          TIME SYSTEM CORR
GLUT -4.6566128731D-10 0.000000000D+00      0    0          TIME SYSTEM CORR
GAUT -9.3132257462D-10 0.000000000D+00 518400 2402          TIME SYSTEM CORR
GAGP  1.0768417269D-09-4.884981308D-15      0 2403          TIME SYSTEM CORR
BDUT  0.0000000000D+00 0.000000000D+00 604385 1046          TIME SYSTEM CORR
    18    18  1929     7                                    LEAP SECONDS
                                                            END OF HEADER
