     3.04           N: GNSS NAV DATA    M: MIXED            RINEX VERSION / TYPE
MergeMNfile.tcl     IGS                 20260128 193505 GMT PGM / RUN BY / DATE
GPUT  2.7939677238D-09 7.105427358D-15 405504 2403          TIME SYSTEM CORR
GLUT  3.7252902985D-09 0.000000000D+00      0    0          TIME SYSTEM CORR
GAUT -9.3132257462D-10 8.881784197D-16  86400 2403          TIME SYSTEM CORR
GAGP -1.7462298274D-09-1.287858709D-14 172800 2403          TIME SYSTEM CORR
BDUT  0.0000000000D+00 0.000000000D+00 172385 1047          TIME SYSTEM CORR
    18    18  1929     7                                    LEAP SECONDS
                                                            END OF HEADER
