     3.04           N: GNSS NAV DATA    M: MIXED            RINEX VERSION / TYPE
MergeMNfile.tcl     IGS                 20260423 073506 GMT PGM / RUN BY / DATE
GAGP -2.6193447411E-10-1.199040867E-14 172800 2415          TIME SYSTEM CORR
GAUT  0.0000000000E+00 0.000000000E+00  86400 2415          TIME SYSTEM CORR
GPUT  3.7252902985E-09 1.421085472E-14 319488 2415          TIME SYSTEM CORR
GLUT  1.3969838619E-09 0.000000000E+00      0    0          TIME SYSTEM CORR
QZUT -1.8626451492E-09 0.000000000E+00 356352 2414          TIME SYSTEM CORR
BDUT  0.0000000000E+00 0.000000000E+00 172385 1059          TIME SYSTEM CORR
    18    18  1929     7                                    LEAP SECONDS
                                                            END OF HEADER
