     3.04           N: GNSS NAV DATA    M: MIXED            RINEX VERSION / TYPE
MergeMNfile.tcl     IGS                 20260428 153506 GMT PGM / RUN BY / DATE
GAGP  1.3387762010E-09-8.881784197E-16  86400 2416          TIME SYSTEM CORR
GAUT  9.3132257462E-10 0.000000000E+00      0 2416          TIME SYSTEM CORR
GPUT  1.8626451492E-09 4.440892099E-15 319488 2416          TIME SYSTEM CORR
GLUT  1.8626451492E-09 0.000000000E+00      0    0          TIME SYSTEM CORR
QZUT -1.8626451492E-09 0.000000000E+00 356352 2414          TIME SYSTEM CORR
BDUT  0.0000000000E+00 0.000000000E+00  85985 1060          TIME SYSTEM CORR
    18    18  1929     7                                    LEAP SECONDS
                                                            END OF HEADER
