     3.04           N: GNSS NAV DATA    M: MIXED            RINEX VERSION / TYPE
MergeMNfile.tcl     IGS                 20260409 042311 GMT PGM / RUN BY / DATE
GAGP  2.3574102670E-09-5.329070518E-15 172800 2413          TIME SYSTEM CORR
GAUT  1.8626451492E-09-8.881784197E-16  86400 2413          TIME SYSTEM CORR
GPUT  3.7252902985E-09 9.769962617E-15 405504 2413          TIME SYSTEM CORR
GLUT -2.7939677238E-09 0.000000000E+00      0    0          TIME SYSTEM CORR
QZUT -1.8626451492E-09 0.000000000E+00 356352 2414          TIME SYSTEM CORR
BDUT  0.0000000000E+00 0.000000000E+00 172385 1057          TIME SYSTEM CORR
    18    18  1929     7                                    LEAP SECONDS
                                                            END OF HEADER
