     3.04           N: GNSS NAV DATA    M: MIXED            RINEX VERSION / TYPE
MergeMNfile.tcl     IGS                 20260123 173505 GMT PGM / RUN BY / DATE
GPUT -2.7939677238D-09-3.552713679D-15 589824 2402          TIME SYSTEM CORR
GLUT  1.3969838619D-09 0.000000000D+00      0    0          TIME SYSTEM CORR
GAUT -1.8626451492D-09 8.881784197D-16 259200 2402          TIME SYSTEM CORR
GAGP  2.2118911147D-09 1.421085472D-14 345600 2402          TIME SYSTEM CORR
BDUT  9.3132257462D-10 0.000000000D+00 345185 1046          TIME SYSTEM CORR
    18    18  1929     7                                    LEAP SECONDS
                                                            END OF HEADER
