     3.04           N: GNSS NAV DATA    M: MIXED            RINEX VERSION / TYPE
MergeMNfile.tcl     IGS                 20260416 193507 GMT PGM / RUN BY / DATE
GPUT -4.6566128731D-09-7.993605777D-15 405504 2414          TIME SYSTEM CORR
GLUT -9.3132257462D-10 0.000000000D+00      0    0          TIME SYSTEM CORR
GAUT  0.0000000000D+00 0.000000000D+00 172800 2414          TIME SYSTEM CORR
GAGP  5.3260009736D-09 1.065814104D-14 259200 2414          TIME SYSTEM CORR
BDUT  0.0000000000D+00 0.000000000D+00 258785 1058          TIME SYSTEM CORR
QZUT  0.0000000000D+00 0.000000000D+00 442368 2414          TIME SYSTEM CORR
    18    18  1929     7                                    LEAP SECONDS
                                                            END OF HEADER
