     3.04           N: GNSS NAV DATA    M: MIXED            RINEX VERSION / TYPE
MergeMNfile.tcl     IGS                 20260126 093505 GMT PGM / RUN BY / DATE
GPUT  0.0000000000D+00 5.329070518D-15 147456 2403          TIME SYSTEM CORR
GLUT -0.0000000000D+00 0.000000000D+00      0    0          TIME SYSTEM CORR
GAUT -1.8626451492D-09 8.881784197D-16 432000 2402          TIME SYSTEM CORR
GAGP  2.0372681320D-09 0.000000000D+00 518400 2402          TIME SYSTEM CORR
BDUT  0.0000000000D+00 0.000000000D+00 517985 1046          TIME SYSTEM CORR
    18    18  1929     7                                    LEAP SECONDS
                                                            END OF HEADER
