     3.04           N: GNSS NAV DATA    M: MIXED            RINEX VERSION / TYPE
MergeMNfile.tcl     IGS                 20260127 173505 GMT PGM / RUN BY / DATE
GPUT  1.8626451492D-09 7.105427358D-15 319488 2403          TIME SYSTEM CORR
GLUT -9.3132257462D-10 0.000000000D+00      0    0          TIME SYSTEM CORR
GAUT -9.3132257462D-10 0.000000000D+00      0 2403          TIME SYSTEM CORR
GAGP -2.3283064365D-10-8.881784197D-15  86400 2403          TIME SYSTEM CORR
BDUT  0.0000000000D+00 0.000000000D+00  85985 1047          TIME SYSTEM CORR
    18    18  1929     7                                    LEAP SECONDS
                                                            END OF HEADER
