     3.04           N: GNSS NAV DATA    M: MIXED            RINEX VERSION / TYPE
MergeMNfile.tcl     IGS                 20260130 153505 GMT PGM / RUN BY / DATE
GPUT  0.0000000000D+00-2.664535259D-15 589824 2403          TIME SYSTEM CORR
GLUT -1.8626451492D-09 0.000000000D+00      0    0          TIME SYSTEM CORR
GAUT -9.3132257462D-10 0.000000000D+00 259200 2403          TIME SYSTEM CORR
GAGP  1.8335413188D-09 6.661338148D-15 345600 2403          TIME SYSTEM CORR
BDUT  0.0000000000D+00 0.000000000D+00 345185 1047          TIME SYSTEM CORR
    18    18  1929     7                                    LEAP SECONDS
                                                            END OF HEADER
