     3.04           N: GNSS NAV DATA    M: MIXED            RINEX VERSION / TYPE
MergeMNfile.tcl     IGS                 20260415 041640 GMT PGM / RUN BY / DATE
GPUT -2.7939677238D-09-8.881784197D-15 319488 2414          TIME SYSTEM CORR
GLUT -1.8626451492D-09 0.000000000D+00      0    0          TIME SYSTEM CORR
GAUT  9.3132257462D-10 0.000000000D+00      0 2414          TIME SYSTEM CORR
GAGP  3.2887328416D-09 1.376676551D-14  86400 2414          TIME SYSTEM CORR
BDUT  0.0000000000D+00 0.000000000D+00  86345 1058          TIME SYSTEM CORR
QZUT  0.0000000000D+00 0.000000000D+00 266240 2414          TIME SYSTEM CORR
    18    18  1929     7                                    LEAP SECONDS
                                                            END OF HEADER
