     3.04           N: GNSS NAV DATA    M: MIXED            RINEX VERSION / TYPE
MergeMNfile.tcl     IGS                 20260109 173506 GMT PGM / RUN BY / DATE
GPUT  1.8626451492D-09 7.105427358D-15 589824 2400          TIME SYSTEM CORR
GLUT  2.3283064365D-09 0.000000000D+00      0    0          TIME SYSTEM CORR
GAUT -9.3132257462D-10 8.881784197D-16 259200 2400          TIME SYSTEM CORR
GAGP  6.4028427005D-10 4.440892099D-16 345600 2400          TIME SYSTEM CORR
BDUT -1.8626451492D-09-9.769962617D-15 345185 1044          TIME SYSTEM CORR
    18    18  1929     7                                    LEAP SECONDS
                                                            END OF HEADER
