     3.04           N: GNSS NAV DATA    M: MIXED            RINEX VERSION / TYPE
MergeMNfile.tcl     IGS                 20260427 113506 GMT PGM / RUN BY / DATE
GAGP  2.2992026061E-09 1.065814104E-14 518400 2415          TIME SYSTEM CORR
GAUT  0.0000000000E+00 0.000000000E+00 432000 2415          TIME SYSTEM CORR
GPUT -1.8626451492E-09-7.105427358E-15 147456 2416          TIME SYSTEM CORR
GLUT  3.7252902985E-09 0.000000000E+00      0    0          TIME SYSTEM CORR
QZUT -1.8626451492E-09 0.000000000E+00 356352 2414          TIME SYSTEM CORR
BDUT  0.0000000000E+00 0.000000000E+00 517985 1059          TIME SYSTEM CORR
    18    18  1929     7                                    LEAP SECONDS
                                                            END OF HEADER
