     3.04           N: GNSS NAV DATA    M: MIXED            RINEX VERSION / TYPE
MergeMNfile.tcl     IGS                 20260424 102917 GMT PGM / RUN BY / DATE
GAGP  7.2759576142E-10 0.000000000E+00 259200 2415          TIME SYSTEM CORR
GAUT  9.3132257462E-10 0.000000000E+00 172800 2415          TIME SYSTEM CORR
GPUT  4.6566128731E-09 7.105427358E-15 503808 2415          TIME SYSTEM CORR
GLUT  3.7252902985E-09 0.000000000E+00      0    0          TIME SYSTEM CORR
QZUT -1.8626451492E-09 0.000000000E+00 356352 2414          TIME SYSTEM CORR
BDUT  0.0000000000E+00 0.000000000E+00 258785 1059          TIME SYSTEM CORR
    18    18  1929     7                                    LEAP SECONDS
                                                            END OF HEADER
