     3.04           N: GNSS NAV DATA    M: MIXED            RINEX VERSION / TYPE
MergeMNfile.tcl     IGS                 20260402 153505 GMT PGM / RUN BY / DATE
GPUT -4.6566128731D-09-1.509903313D-14 503808 2412          TIME SYSTEM CORR
GLUT -6.5192580223D-09 0.000000000D+00      0    0          TIME SYSTEM CORR
GAUT  9.3132257462D-10 0.000000000D+00 172800 2412          TIME SYSTEM CORR
GAGP  1.5425030142D-09-1.332267630D-15 259200 2412          TIME SYSTEM CORR
BDUT  0.0000000000D+00 0.000000000D+00 258785 1056          TIME SYSTEM CORR
QZUT  4.6566128731D-09 0.000000000D+00 442368 2412          TIME SYSTEM CORR
    18    18  1929     7                                    LEAP SECONDS
                                                            END OF HEADER
