     3.04           N: GNSS NAV DATA    M: MIXED            RINEX VERSION / TYPE
MergeMNfile.tcl     IGS                 20260104 113506 GMT PGM / RUN BY / DATE
GPUT -2.7939677238D-09-4.440892099D-15  61440 2400          TIME SYSTEM CORR
GLUT -3.7252902985D-09 0.000000000D+00      0    0          TIME SYSTEM CORR
GAUT -1.8626451492D-09 8.881784197D-16 345600 2399          TIME SYSTEM CORR
GAGP  2.2992026061D-09 4.884981308D-15 432000 2399          TIME SYSTEM CORR
BDUT  9.3132257462D-10 9.769962617D-15 431585 1043          TIME SYSTEM CORR
    18    18  1929     7                                    LEAP SECONDS
                                                            END OF HEADER
