     3.04           N: GNSS NAV DATA    M: MIXED            RINEX VERSION / TYPE
MergeMNfile.tcl     IGS                 20260119 093505 GMT PGM / RUN BY / DATE
GPUT  2.7939677238D-09 1.776356839D-15 147456 2402          TIME SYSTEM CORR
GLUT  5.5879354477D-09 0.000000000D+00      0    0          TIME SYSTEM CORR
GAUT -1.8626451492D-09 8.881784197D-16 432000 2401          TIME SYSTEM CORR
GAGP -1.8335413188D-09-4.440892099D-16 518400 2401          TIME SYSTEM CORR
BDUT -1.8626451492D-09 0.000000000D+00 517985 1045          TIME SYSTEM CORR
    18    18  1929     7                                    LEAP SECONDS
                                                            END OF HEADER
