     3.04           N: GNSS NAV DATA    M: MIXED            RINEX VERSION / TYPE
MergeMNfile.tcl     IGS                 20260414 021717 GMT PGM / RUN BY / DATE
GPUT -3.7252902985D-09-1.598721155D-14 233472 2414          TIME SYSTEM CORR
GLUT -1.8626451492D-09 0.000000000D+00      0    0          TIME SYSTEM CORR
GAUT  9.3132257462D-10 0.000000000D+00 518400 2413          TIME SYSTEM CORR
GAGP  1.9208528101D-09 1.243449788D-14      0 2414          TIME SYSTEM CORR
BDUT  0.0000000000D+00 0.000000000D+00 604745 1057          TIME SYSTEM CORR
QZUT -9.3132257462D-10 0.000000000D+00 180224 2414          TIME SYSTEM CORR
    18    18  1929     7                                    LEAP SECONDS
                                                            END OF HEADER
