     3.04           N: GNSS NAV DATA    M: MIXED            RINEX VERSION / TYPE
MergeMNfile.tcl     IGS                 20260418 133506 GMT PGM / RUN BY / DATE
GPUT  0.0000000000D+00 9.769962617D-15  61440 2415          TIME SYSTEM CORR
GLUT  0.0000000000D+00 0.000000000D+00      0    0          TIME SYSTEM CORR
GAUT  0.0000000000D+00 0.000000000D+00 345600 2414          TIME SYSTEM CORR
GAGP  2.7357600629D-09-1.554312234D-14 432000 2414          TIME SYSTEM CORR
BDUT  0.0000000000D+00 0.000000000D+00 431585 1058          TIME SYSTEM CORR
QZUT  0.0000000000D+00 0.000000000D+00   8192 2415          TIME SYSTEM CORR
    18    18  1929     7                                    LEAP SECONDS
                                                            END OF HEADER
