     3.04           N: GNSS NAV DATA    M: MIXED            RINEX VERSION / TYPE
MergeMNfile.tcl     IGS                 20260114 113505 GMT PGM / RUN BY / DATE
GPUT  2.7939677238D-09 4.440892099D-15 319488 2401          TIME SYSTEM CORR
GLUT  3.7252902985D-09 0.000000000D+00      0    0          TIME SYSTEM CORR
GAUT -1.8626451492D-09 8.881784197D-16      0 2401          TIME SYSTEM CORR
GAGP -1.8044374883D-09-8.881784197D-16  86400 2401          TIME SYSTEM CORR
BDUT  0.0000000000D+00-9.769962617D-15  85985 1045          TIME SYSTEM CORR
    18    18  1929     7                                    LEAP SECONDS
                                                            END OF HEADER
