     3.04           N: GNSS NAV DATA    M: MIXED            RINEX VERSION / TYPE
MergeMNfile.tcl     IGS                 20260105 013508 GMT PGM / RUN BY / DATE
GPUT -9.3132257462D-10 2.664535259D-15 147456 2400          TIME SYSTEM CORR
GLUT -9.3132257462D-10 0.000000000D+00      0    0          TIME SYSTEM CORR
GAUT -9.3132257462D-10 0.000000000D+00 432000 2399          TIME SYSTEM CORR
GAGP  3.1723175198D-09 9.325873407D-15 518400 2399          TIME SYSTEM CORR
BDUT  9.3132257462D-10 0.000000000D+00 517985 1043          TIME SYSTEM CORR
    18    18  1929     7                                    LEAP SECONDS
                                                            END OF HEADER
