     3.04           N: GNSS NAV DATA    M: MIXED            RINEX VERSION / TYPE
MergeMNfile.tcl     IGS                 20260201 133505 GMT PGM / RUN BY / DATE
GPUT -3.7252902985D-09-1.065814104D-14 147456 2404          TIME SYSTEM CORR
GLUT -9.3132257462D-10 0.000000000D+00      0    0          TIME SYSTEM CORR
GAUT -9.3132257462D-10 8.881784197D-16 432000 2403          TIME SYSTEM CORR
GAGP -4.2200554162D-09-1.332267630D-14 518400 2403          TIME SYSTEM CORR
BDUT -9.3132257462D-10-9.769962617D-15 517985 1047          TIME SYSTEM CORR
    18    18  1929     7                                    LEAP SECONDS
                                                            END OF HEADER
