     3.04           N: GNSS NAV DATA    M: MIXED            RINEX VERSION / TYPE
MergeMNfile.tcl     IGS                 20260106 153505 GMT PGM / RUN BY / DATE
GPUT  0.0000000000D+00 3.552713679D-15 319488 2400          TIME SYSTEM CORR
GLUT -1.3969838619D-09 0.000000000D+00      0    0          TIME SYSTEM CORR
GAUT  0.0000000000D+00 0.000000000D+00      0 2400          TIME SYSTEM CORR
GAGP  1.6007106751D-09 8.881784197D-16  86400 2400          TIME SYSTEM CORR
BDUT  0.0000000000D+00 0.000000000D+00  85985 1044          TIME SYSTEM CORR
    18    18  1929     7                                    LEAP SECONDS
                                                            END OF HEADER
