     3.04           N: GNSS NAV DATA    M: MIXED            RINEX VERSION / TYPE
MergeMNfile.tcl     IGS                 20260112 102426 GMT PGM / RUN BY / DATE
GPUT  0.0000000000D+00 8.881784197D-16 147456 2401          TIME SYSTEM CORR
GLUT  3.2596290112D-09 0.000000000D+00      0    0          TIME SYSTEM CORR
GAUT -1.8626451492D-09 8.881784197D-16 432000 2400          TIME SYSTEM CORR
GAGP -1.9499566406D-09-1.110223025D-14 518400 2400          TIME SYSTEM CORR
BDUT -9.3132257462D-10 9.769962617D-15 517985 1044          TIME SYSTEM CORR
    18    18  1929     7                                    LEAP SECONDS
                                                            END OF HEADER
