     3.04           N: GNSS NAV DATA    M: MIXED            RINEX VERSION / TYPE
MergeMNfile.tcl     IGS                 20260121 193505 GMT PGM / RUN BY / DATE
GPUT  1.8626451492D-09 5.329070518D-15 405504 2402          TIME SYSTEM CORR
GLUT  4.6566128731D-09 0.000000000D+00      0    0          TIME SYSTEM CORR
GAUT -1.8626451492D-09 8.881784197D-16  86400 2402          TIME SYSTEM CORR
GAGP -3.2014213502D-10-1.332267630D-15 172800 2402          TIME SYSTEM CORR
BDUT  9.3132257462D-10 9.769962617D-15 172385 1046          TIME SYSTEM CORR
    18    18  1929     7                                    LEAP SECONDS
                                                            END OF HEADER
