     3.04           N: GNSS NAV DATA    M: MIXED            RINEX VERSION / TYPE
MergeMNfile.tcl     IGS                 20260115 093505 GMT PGM / RUN BY / DATE
GPUT  6.5192580223D-09 1.243449788D-14 405504 2401          TIME SYSTEM CORR
GLUT  3.2596290112D-09 0.000000000D+00      0    0          TIME SYSTEM CORR
GAUT -1.8626451492D-09 8.881784197D-16  86400 2401          TIME SYSTEM CORR
GAGP -4.3364707381D-09-1.287858709D-14 172800 2401          TIME SYSTEM CORR
BDUT -9.3132257462D-10-2.042810365D-14 172385 1045          TIME SYSTEM CORR
    18    18  1929     7                                    LEAP SECONDS
                                                            END OF HEADER
