     3.04           N: GNSS NAV DATA    M: MIXED            RINEX VERSION / TYPE
MergeMNfile.tcl     IGS                 20260131 033504 GMT PGM / RUN BY / DATE
GPUT  9.3132257462D-10 1.776356839D-15  61440 2404          TIME SYSTEM CORR
GLUT -1.3969838619D-09 0.000000000D+00      0    0          TIME SYSTEM CORR
GAUT -9.3132257462D-10 0.000000000D+00 345600 2403          TIME SYSTEM CORR
GAGP -4.2782630771D-09-2.797762022D-14 432000 2403          TIME SYSTEM CORR
BDUT  0.0000000000D+00 0.000000000D+00 431585 1047          TIME SYSTEM CORR
    18    18  1929     7                                    LEAP SECONDS
                                                            END OF HEADER
